0 PSLV DEB
1 27142U 01049CN  13282.06061736  .00000661  00000-0  27017-3 0  3329
2 27142 097.3953 357.1342 0294296 151.8371 328.7829 14.08717498605826
0 PSLV DEB
1 27142U 01049CN  13283.17951133  .00000834  00000-0  33733-3 0  3336
2 27142 097.3953 358.0543 0294331 148.5736 243.1107 14.08718210605986
0 PSLV DEB
1 27142U 01049CN  13286.16272564  .00000809  00000-0  32726-3 0  3357
2 27142 097.3954 000.5076 0294387 139.8647 252.1108 14.08723448606400
0 PSLV DEB
1 27142U 01049CN  13287.53055241  .00000652  00000-0  26621-3 0  3364
2 27142 097.3953 001.6325 0294427 135.8651 348.8926 14.08727829606592
0 PSLV DEB
1 27142U 01049CN  13288.73692006  .00000583  00000-0  23934-3 0  3371
2 27142 097.3950 002.6248 0294460 132.3364 346.8718 14.08732672606762
0 PSLV DEB
1 27142U 01049CN  13290.01632299  .00000335  00000-0  14276-3 0  3388
2 27142 097.3947 003.6771 0294488 128.5944 355.2633 14.08736488606940
0 PSLV DEB
1 27142U 01049CN  13291.50906002  .00000260  00000-0  11358-3 0  3395
2 27142 097.3942 004.9048 0294512 124.2318 005.5844 14.08738743607151
0 PSLV DEB
1 27142U 01049CN  13292.71491498  .00000331  00000-0  14130-3 0  3409
2 27142 097.3939 005.8965 0294532 120.7085 001.0130 14.08739157607327
0 PSLV DEB
1 27142U 01049CN  13293.78127650  .00000509  00000-0  21033-3 0  3411
2 27142 097.3938 006.7734 0294528 117.5959 009.0115 14.08738724607475
0 PSLV DEB
1 27142U 01049CN  13295.18787948  .00000687  00000-0  27948-3 0  3428
2 27142 097.3938 007.9299 0294498 113.4932 302.5252 14.08738838607677
